CCSDS_OEM_VERS = 1.0
CREATION_DATE  = 2017-05-11T12:06:30
ORIGINATOR     = GMAT USER

META_START
OBJECT_NAME          = MOPSSat_alt_35785_km_RAAN_270_151
OBJECT_ID            = SatId
CENTER_NAME          = Earth
REF_FRAME            = EME2000
TIME_SYSTEM          = UTC
START_TIME           = 2017-01-01T00:00:00.000
USEABLE_START_TIME   = 2017-01-01T00:00:00.000
USEABLE_STOP_TIME    = 2017-01-02T00:00:00.000
STOP_TIME            = 2017-01-02T00:00:00.000
INTERPOLATION        = Lagrange
INTERPOLATION_DEGREE = 7 
META_STOP


                                                                                   

2017-01-01T13:35:50.000  -1.036346282709643e+04   6.149487615511066e+04  -1.706574510038567e+01  -1.726547991183261e+00  -5.894985842223548e-01  -2.911130007283777e-03
2017-01-01T13:36:00.000  -1.038072745538705e+04   6.148897611592777e+04  -1.709485474184084e+01  -1.726377582632371e+00  -5.905092488516155e-01  -2.910798141547406e-03
2017-01-01T13:36:10.000  -1.039799037772256e+04   6.148306596997999e+04  -1.712396106148487e+01  -1.726206866089805e+00  -5.915199597746580e-01  -2.910465756214475e-03
2017-01-01T13:36:20.000  -1.041525159119755e+04   6.147714571674402e+04  -1.715306405441606e+01  -1.726035841455210e+00  -5.925307170807786e-01  -2.910132851131882e-03
2017-01-01T13:36:30.000  -1.043251109286610e+04   6.147121535570915e+04  -1.718216371566465e+01  -1.725864508628427e+00  -5.935415208569608e-01  -2.909799426146960e-03
2017-01-01T13:36:40.000  -1.044976887982990e+04   6.146527488634757e+04  -1.721126004034127e+01  -1.725692867508631e+00  -5.945523711930292e-01  -2.909465481105790e-03
2017-01-01T13:36:50.000  -1.046702494901445e+04   6.145932430818966e+04  -1.724035302325964e+01  -1.725520917996504e+00  -5.955632681685656e-01  -2.909131015857461e-03
2017-01-01T13:37:00.000  -1.048427929733532e+04   6.145336362076842e+04  -1.726944265921690e+01  -1.725348659992636e+00  -5.965742118626225e-01  -2.908796030250932e-03
2017-01-01T13:37:10.000  -1.050153192169797e+04   6.144739282361890e+04  -1.729852894299330e+01  -1.725176093397501e+00  -5.975852023537231e-01  -2.908460524134990e-03
2017-01-01T13:37:20.000  -1.051878281883214e+04   6.144141191633693e+04  -1.732761186907309e+01  -1.725003218113163e+00  -5.985962397101378e-01  -2.908124497361564e-03
2017-01-01T13:37:30.000  -1.053603198551505e+04   6.143542089850063e+04  -1.735669143202067e+01  -1.724830034040998e+00  -5.996073240029803e-01  -2.907787949781298e-03
2017-01-01T13:37:40.000  -1.055327941848347e+04   6.142941976970093e+04  -1.738576762633243e+01  -1.724656541082583e+00  -6.006184553010496e-01  -2.907450881245284e-03
2017-01-01T13:37:50.000  -1.057052511482285e+04   6.142340852940651e+04  -1.741484044709280e+01  -1.724482739135790e+00  -6.016296336936473e-01  -2.907113291597469e-03
2017-01-01T13:38:00.000  -1.058776907157821e+04   6.141738717709893e+04  -1.744390988931814e+01  -1.724308628098687e+00  -6.026408592677598e-01  -2.906775180682234e-03
2017-01-01T13:38:10.000  -1.060501128584207e+04   6.141135571224220e+04  -1.747297594810506e+01  -1.724134207868667e+00  -6.036521321132173e-01  -2.906436548342703e-03
2017-01-01T13:38:20.000  -1.062225175453092e+04   6.140531413435956e+04  -1.750203861825361e+01  -1.723959478344659e+00  -6.046634523096027e-01  -2.906097394425049e-03
2017-01-01T13:38:30.000  -1.063949047455129e+04   6.139926244297693e+04  -1.753109789454716e+01  -1.723784439425496e+00  -6.056748199359673e-01  -2.905757718775312e-03
2017-01-01T13:38:40.000  -1.065672744279961e+04   6.139320063762226e+04  -1.756015377175227e+01  -1.723609091009900e+00  -6.066862350708355e-01  -2.905417521239367e-03
2017-01-01T13:38:50.000  -1.067396265599673e+04   6.138712871788527e+04  -1.758920624433967e+01  -1.723433432998206e+00  -6.076976977824720e-01  -2.905076801666268e-03
2017-01-01T13:39:00.000  -1.069119611091093e+04   6.138104668333761e+04  -1.761825530686027e+01  -1.723257465290053e+00  -6.087092081419877e-01  -2.904735559903773e-03
2017-01-01T13:39:10.000  -1.070842780426833e+04   6.137495453356471e+04  -1.764730095379405e+01  -1.723081187785305e+00  -6.097207662180785e-01  -2.904393795800134e-03
2017-01-01T13:39:20.000  -1.072565773314834e+04   6.136885226802601e+04  -1.767634318021663e+01  -1.722904600380011e+00  -6.107323721002359e-01  -2.904051509196254e-03
2017-01-01T13:39:30.000  -1.074288589458719e+04   6.136273988619506e+04  -1.770538198113107e+01  -1.722727702970449e+00  -6.117440258754796e-01  -2.903708699933547e-03
2017-01-01T13:39:40.000  -1.076011228568030e+04   6.135661738752342e+04  -1.773441735164032e+01  -1.722550495452092e+00  -6.127557276343611e-01  -2.903365367851908e-03
2017-01-01T13:39:50.000  -1.077733690330702e+04   6.135048477153724e+04  -1.776344928648330e+01  -1.722372977722393e+00  -6.137674774548182e-01  -2.903021512795134e-03
2017-01-01T13:40:00.000  -1.079455974435780e+04   6.134434203775776e+04  -1.779247778041781e+01  -1.722195149678492e+00  -6.147792754154960e-01  -2.902677134606469e-03
2017-01-01T13:40:10.000  -1.081178080568349e+04   6.133818918571906e+04  -1.782150282813503e+01  -1.722017011217725e+00  -6.157911215927780e-01  -2.902332233129587e-03
2017-01-01T13:40:20.000  -1.082900008410922e+04   6.133202621496381e+04  -1.785052442428300e+01  -1.721838562237502e+00  -6.168030160615871e-01  -2.901986808208364e-03
2017-01-01T13:40:30.000  -1.084621757645143e+04   6.132585312503660e+04  -1.787954256349532e+01  -1.721659802635116e+00  -6.178149588963977e-01  -2.901640859686499e-03
2017-01-01T13:40:40.000  -1.086343327952414e+04   6.131966991548174e+04  -1.790855724040160e+01  -1.721480732307678e+00  -6.188269501716009e-01  -2.901294387407391e-03
2017-01-01T13:40:50.000  -1.088064719020050e+04   6.131347658582153e+04  -1.793756844973136e+01  -1.721301351151484e+00  -6.198389899651218e-01  -2.900947391212921e-03
2017-01-01T13:41:00.000  -1.089785930537174e+04   6.130727313557055e+04  -1.796657618624472e+01  -1.721121659062437e+00  -6.208510783560068e-01  -2.900599870944253e-03
2017-01-01T13:41:10.000  -1.091506962194716e+04   6.130105956423579e+04  -1.799558044473239e+01  -1.720941655936039e+00  -6.218632154244261e-01  -2.900251826441833e-03
2017-01-01T13:41:20.000  -1.093227813689505e+04   6.129483587130136e+04  -1.802458122008474e+01  -1.720761341666958e+00  -6.228754012540861e-01  -2.899903257544557e-03
2017-01-01T13:41:30.000  -1.094948484718125e+04   6.128860205625111e+04  -1.805357850718809e+01  -1.720580716149678e+00  -6.238876359286100e-01  -2.899554164091012e-03
2017-01-01T13:41:40.000  -1.096668974976295e+04   6.128235811857093e+04  -1.808257230091434e+01  -1.720399779278564e+00  -6.248999195311716e-01  -2.899204545919618e-03
2017-01-01T13:41:50.000  -1.098389284157139e+04   6.127610405775424e+04  -1.811156259609189e+01  -1.720218530948026e+00  -6.259122521434906e-01  -2.898854402868932e-03
2017-01-01T13:42:00.000  -1.100109411949828e+04   6.126983987330792e+04  -1.814054938748265e+01  -1.720036971052688e+00  -6.269246338450197e-01  -2.898503734777972e-03
2017-01-01T13:42:10.000  -1.101829358044636e+04   6.126356556473336e+04  -1.816953266986724e+01  -1.719855099486837e+00  -6.279370647159231e-01  -2.898152541485172e-03
2017-01-01T13:42:20.000  -1.103549122110289e+04   6.125728113161034e+04  -1.819851243766342e+01  -1.719672916146859e+00  -6.289495448237326e-01  -2.897800822833060e-03
2017-01-01T13:42:30.000  -1.105268703821416e+04   6.125098657349573e+04  -1.822748868538853e+01  -1.719490420928300e+00  -6.299620742395156e-01  -2.897448578662600e-03
2017-01-01T13:42:40.000  -1.106988102848331e+04   6.124468188996106e+04  -1.825646140748747e+01  -1.719307613726954e+00  -6.309746530318648e-01  -2.897095808815286e-03
2017-01-01T13:42:50.000  -1.108707318896600e+04   6.123836708044763e+04  -1.828543059899920e+01  -1.719124494434660e+00  -6.319872812901893e-01  -2.896742513125035e-03
2017-01-01T13:43:00.000  -1.110426351667573e+04   6.123204214441082e+04  -1.831439625489187e+01  -1.718941062943492e+00  -6.329999591014797e-01  -2.896388691426273e-03
2017-01-01T13:43:10.000  -1.112145200867333e+04   6.122570708128774e+04  -1.834335837021358e+01  -1.718757319144818e+00  -6.340126865555754e-01  -2.896034343552108e-03
2017-01-01T13:43:20.000  -1.113863866184410e+04   6.121936189057775e+04  -1.837231693971671e+01  -1.718573262931631e+00  -6.350254637320519e-01  -2.895679469338848e-03
2017-01-01T13:43:30.000  -1.115582347306332e+04   6.121300657178305e+04  -1.840127195813700e+01  -1.718388894196827e+00  -6.360382907099545e-01  -2.895324068622671e-03
2017-01-01T13:43:40.000  -1.117300643919617e+04   6.120664112440804e+04  -1.843022342019327e+01  -1.718204212833194e+00  -6.370511675677979e-01  -2.894968141239595e-03
2017-01-01T13:43:50.000  -1.119018755693270e+04   6.120026554802198e+04  -1.845917132030955e+01  -1.718019218735221e+00  -6.380640943738233e-01  -2.894611687028966e-03
2017-01-01T13:44:00.000  -1.120736682301022e+04   6.119387984217516e+04  -1.848811565298959e+01  -1.717833911796671e+00  -6.390770711991199e-01  -2.894254705828785e-03
2017-01-01T13:44:10.000  -1.122454423412561e+04   6.118748400643175e+04  -1.851705641266921e+01  -1.717648291911533e+00  -6.400900981124586e-01  -2.893897197477540e-03
2017-01-01T13:44:20.000  -1.124171978732301e+04   6.118107804022560e+04  -1.854599359436947e+01  -1.717462358969834e+00  -6.411031752031492e-01  -2.893539161806143e-03
2017-01-01T13:44:30.000  -1.125889347960613e+04   6.117466194300434e+04  -1.857492719304351e+01  -1.717276112861823e+00  -6.421163025581830e-01  -2.893180598645983e-03
2017-01-01T13:44:40.000  -1.127606530802596e+04   6.116823571419693e+04  -1.860385720372425e+01  -1.717089553477031e+00  -6.431294802673979e-01  -2.892821507827124e-03
2017-01-01T13:44:50.000  -1.129323526945808e+04   6.116179935329560e+04  -1.863278362114922e+01  -1.716902680706645e+00  -6.441427084103666e-01  -2.892461889182875e-03
